NORAD_CAT_ID,OBJECT_NAME,OBJECT_TYPE,EPOCH,MEAN_MOTION,ECCENTRICITY,INCLINATION,RA_OF_ASC_NODE,ARG_OF_PERICENTER,MEAN_ANOMALY,BSTAR,MEAN_MOTION_DOT,MEAN_MOTION_DDOT,TLE_LINE0,TLE_LINE1,TLE_LINE2,SEMIMAJOR_AXIS,PERIOD,APOGEE,PERIGEE,DECAYED
53290.0,STARLINK-4149,PAYLOAD,2023-01-25 22:08:04,15.08847152,0.0001107999999999,53.2175,256.2423,92.4427,267.6692,4.2534e-06,-2.2e-06,0.0,0 STARLINK-4149,1 53290U 22086BA  23025.92227277 -.00000220  00000-0  42534-5 0  9995,2 53290  53.2175 256.2423 0001108  92.4427 267.6692 15.08847152 29275,6917.859,95.437,540.49,538.957,0.0
53290.0,STARLINK-4149,PAYLOAD,2023-01-26 21:58:51,15.08849314,0.0001069,53.2174,251.7821,101.7493,258.362,-8.293100000000001e-05,-1.608e-05,0.0,0 STARLINK-4149,1 53290U 22086BA  23026.91587338 -.00001608  00000-0 -82931-4 0  9998,2 53290  53.2174 251.7821 0001069 101.7493 258.3620 15.08849314 29268,6917.852,95.437,540.456,538.977,0.0
53290.0,STARLINK-4149,PAYLOAD,2023-01-27 18:38:52,15.08834846,0.0001121,53.2173,247.9161,98.8442,261.2677,-5.5655e-06,-3.76e-06,0.0,0 STARLINK-4149,1 53290U 22086BA  23027.77700168 -.00000376  00000-0 -55655-5 0  9996,2 53290  53.2173 247.9161 0001121  98.8442 261.2677 15.08834846 29393,6917.896,95.438,540.5369999999999,538.986,0.0
53290.0,STARLINK-4149,PAYLOAD,2023-01-27 21:49:39,15.08835328,0.0001042,53.2174,247.3215,92.1711,267.9401,3.2361e-06,-2.36e-06,0.0,0 STARLINK-4149,1 53290U 22086BA  23027.90948159 -.00000236  00000-0  32361-5 0  9998,2 53290  53.2174 247.3215 0001042  92.1711 267.9401 15.08835328 29570,6917.895,95.438,540.481,539.039,0.0
53290.0,STARLINK-4149,PAYLOAD,2023-01-28 08:57:21,15.08837857,0.0001148,53.2172,245.2397,96.1066,264.0057,-2.2729e-06,-3.24e-06,0.0,0 STARLINK-4149,1 53290U 22086BA  23028.37316045 -.00000324  00000-0 -22729-5 0  9999,2 53290  53.2172 245.2397 0001148  96.1066 264.0057 15.08837857 29642,6917.887,95.438,540.546,538.958,0.0
53290.0,STARLINK-4149,PAYLOAD,2023-01-28 20:05:02,15.08840754,0.0001141,53.2171,243.158,111.074,249.0374,2.639e-05,1.32e-06,0.0,0 STARLINK-4149,1 53290U 22086BA  23028.83683873  .00000132  00000-0  26390-4 0  9998,2 53290  53.2171 243.1580 0001141 111.0740 249.0374 15.08840754 29714,6917.878,95.438,540.532,538.954,0.0
53290.0,STARLINK-4149,PAYLOAD,2023-01-28 23:15:49,15.08842044,0.0001065,53.2173,242.5636,91.5871,268.5243,6.5738e-05,7.59e-06,0.0,0 STARLINK-4149,1 53290U 22086BA  23028.96931724  .00000759  00000-0  65738-4 0  9997,2 53290  53.2173 242.5636 0001065  91.5871 268.5243 15.08842044 29572,6917.874,95.437,540.476,539.002,0.0
53290.0,STARLINK-4149,PAYLOAD,2023-01-29 13:34:17,15.08835381,0.0001079,53.2171,239.8873,92.2087,267.9029,5.2587e-05,5.49e-06,0.0,0 STARLINK-4149,1 53290U 22086BA  23029.56548247  .00000549  00000-0  52587-4 0  9993,2 53290  53.2171 239.8873 0001079  92.2087 267.9029 15.08835381 29665,6917.895,95.438,540.506,539.013,0.0
53290.0,STARLINK-4149,PAYLOAD,2023-01-29 19:55:50,15.08835548,0.0001091,53.2172,238.698,86.4476,273.6641,4.9875e-05,5.06e-06,0.0,0 STARLINK-4149,1 53290U 22086BA  23029.83044323  .00000506  00000-0  49875-4 0  9998,2 53290  53.2172 238.6980 0001091  86.4476 273.6641 15.08835548 29864,6917.894,95.438,540.514,539.004,0.0
53290.0,STARLINK-4149,PAYLOAD,2023-01-29 21:31:13,15.08836464,0.00011,53.2172,238.4007,85.5147,274.5971,5.6252e-05,6.07e-06,0.0,0 STARLINK-4149,1 53290U 22086BA  23029.89668267  .00000607  00000-0  56252-4 0  9992,2 53290  53.2172 238.4007 0001100  85.5147 274.5971 15.08836464 29873,6917.891,95.438,540.517,538.995,0.0
53290.0,STARLINK-4149,PAYLOAD,2023-01-30 19:46:36,15.08843214,0.0001098,53.2171,234.2379,82.3879,277.7238,7.625e-05,9.26e-06,0.0,0 STARLINK-4149,1 53290U 22086BA  23030.82403766  .00000926  00000-0  76250-4 0  9992,2 53290  53.2171 234.2379 0001098  82.3879 277.7238 15.08843214 29851,6917.871,95.437,540.495,538.976,0.0
53290.0,STARLINK-4149,PAYLOAD,2023-01-30 22:57:22,15.08846773,0.0001115,53.2171,233.6431,82.1762,277.9357,6.1113e-05,6.85e-06,0.0,0 STARLINK-4149,1 53290U 22086BA  23030.95651543  .00000685  00000-0  61113-4 0  9998,2 53290  53.2171 233.6431 0001115  82.1762 277.9357 15.08846773 30031,6917.86,95.437,540.496,538.953,0.0
53290.0,STARLINK-4149,PAYLOAD,2023-01-31 19:37:25,15.08827418,0.0001052,53.2171,229.7774,77.6874,282.4236,-3.0191e-05,-7.68e-06,0.0,0 STARLINK-4149,1 53290U 22086BA  23031.81765408 -.00000768  00000-0 -30191-4 0  9996,2 53290  53.2171 229.7774 0001052  77.6874 282.4236 15.08827418 30009,6917.919,95.438,540.512,539.056,0.0
53290.0,STARLINK-4149,PAYLOAD,2023-02-01 13:06:39,15.08834077,0.0001082,53.2168,226.5061,82.4131,277.6984,-3.4231e-06,-3.42e-06,0.0,0 STARLINK-4149,1 53290U 22086BA  23032.54629242 -.00000342  00000-0 -34231-5 0  9990,2 53290  53.2168 226.5061 0001082  82.4131 277.6984 15.08834077 30276,6917.898,95.438,540.512,539.015,0.0
53290.0,STARLINK-4149,PAYLOAD,2023-02-01 19:28:12,15.08839206,0.000118,53.2165,225.3168,82.4027,277.7099,-1.3599e-05,-5.04e-06,0.0,0 STARLINK-4149,1 53290U 22086BA  23032.81125085 -.00000504  00000-0 -13599-4 0  9999,2 53290  53.2165 225.3168 0001180  82.4027 277.7099 15.08839206 30155,6917.883,95.438,540.564,538.932,0.0
53290.0,STARLINK-4149,PAYLOAD,2023-02-01 22:38:58,15.08838285,0.0001165,53.2165,224.7221,84.1652,275.9473,1.0779e-05,-1.16e-06,0.0,0 STARLINK-4149,1 53290U 22086BA  23032.94373098 -.00000116  00000-0  10779-4 0  9997,2 53290  53.2165 224.7221 0001165  84.1652 275.9473 15.08838285 30336,6917.886,95.438,540.557,538.945,0.0
53290.0,STARLINK-4149,PAYLOAD,2023-02-02 22:29:44,15.08842896,0.0001154,53.2166,220.2616,80.0355,280.0767,0.00017858,2.556e-05,0.0,0 STARLINK-4149,1 53290U 22086BA  23033.93732561  .00002556  00000-0  17858-3 0  9994,2 53290  53.2166 220.2616 0001154  80.0355 280.0767 15.08842896 30324,6917.872,95.437,540.535,538.938,0.0
53290.0,STARLINK-4149,PAYLOAD,2023-02-03 12:48:13,15.08842334,0.0001173,53.2167,217.5849,80.97,279.1425,9.3952e-05,1.208e-05,0.0,0 STARLINK-4149,1 53290U 22086BA  23034.53348925  .00001208  00000-0  93952-4 0  9991,2 53290  53.2167 217.5849 0001173  80.9700 279.1425 15.08842334 30570,6917.873,95.437,540.55,538.927,0.0
53290.0,STARLINK-4149,PAYLOAD,2023-02-03 14:23:36,15.08842692,0.0001175,53.2169,217.2876,81.0364,279.0762,9.4803e-05,1.221e-05,0.0,0 STARLINK-4149,1 53290U 22086BA  23034.59972893  .00001221  00000-0  94803-4 0  9995,2 53290  53.2169 217.2876 0001175  81.0364 279.0762 15.08842692 30423,6917.872,95.437,540.55,538.924,0.0
53290.0,STARLINK-4149,PAYLOAD,2023-02-04 06:17:27,15.0884495,0.0001194,53.2169,214.314,81.6706,278.4421,6.8818e-05,8.08e-06,0.0,0 STARLINK-4149,1 53290U 22086BA  23035.26212664  .00000808  00000-0  68818-4 0  9990,2 53290  53.2169 214.3140 0001194  81.6706 278.4421 15.08844950 30684,6917.865,95.437,540.556,538.904,0.0
53290.0,STARLINK-4149,PAYLOAD,2023-02-04 20:35:55,15.08846022,0.0001175,53.2171,211.6374,85.8876,274.2251,1.0384e-05,-1.23e-06,0.0,0 STARLINK-4149,1 53290U 22086BA  23035.85828474 -.00000123  00000-0  10384-4 0  9993,2 53290  53.2171 211.6374 0001175  85.8876 274.2251 15.08846022 30619,6917.862,95.437,540.54,538.914,0.0
53290.0,STARLINK-4149,PAYLOAD,2023-02-05 04:32:51,15.08838281,0.0001159,53.2173,210.1511,86.0996,274.0128,-1.2532e-06,-3.08e-06,0.0,0 STARLINK-4149,1 53290U 22086BA  23036.18948930 -.00000308  00000-0 -12532-5 0  9994,2 53290  53.2173 210.1511 0001159  86.0996 274.0128 15.08838281 30660,6917.886,95.438,540.552,538.949,0.0
53290.0,STARLINK-4149,PAYLOAD,2023-02-05 06:08:15,15.08837288,0.0001194,53.2172,209.8537,84.8255,275.2874,-1.1343e-05,-4.68e-06,0.0,0 STARLINK-4149,1 53290U 22086BA  23036.25573034 -.00000468  00000-0 -11343-4 0  9996,2 53290  53.2172 209.8537 0001194  84.8255 275.2874 15.08837288 30831,6917.889,95.438,540.58,538.928,0.0
53290.0,STARLINK-4149,PAYLOAD,2023-02-05 18:51:20,15.08838644,0.0001198,53.2172,207.4749,84.4479,275.6649,5.6797e-06,-1.97e-06,0.0,0 STARLINK-4149,1 53290U 22086BA  23036.78564949 -.00000197  00000-0  56797-5 0  9990,2 53290  53.2172 207.4749 0001198  84.4479 275.6649 15.08838644 30918,6917.885,95.438,540.578,538.921,0.0
53290.0,STARLINK-4149,PAYLOAD,2023-02-06 04:23:38,15.08839645,0.0001183,53.2174,205.6907,86.1004,274.0123,6.0656e-05,6.78e-06,0.0,0 STARLINK-4149,1 53290U 22086BA  23037.18308716  .00000678  00000-0  60656-4 0  9994,2 53290  53.2174 205.6907 0001183  86.1004 274.0123 15.08839645 30971,6917.881,95.438,540.565,538.928,0.0
53290.0,STARLINK-4149,PAYLOAD,2023-02-06 20:17:29,15.08851182,0.0001201,53.2173,202.7169,86.2871,273.8258,0.0001148,1.54e-05,0.0,0 STARLINK-4149,1 53290U 22086BA  23037.84547818  .00001540  00000-0  11480-3 0  9994,2 53290  53.2173 202.7169 0001201  86.2871 273.8258 15.08851182 30912,6917.846,95.437,540.542,538.88,0.0
53290.0,STARLINK-4149,PAYLOAD,2023-02-07 04:14:25,15.08846206,0.0001067,53.2177,201.229,92.1605,267.9509,5.5174e-05,5.91e-06,0.0,0 STARLINK-4149,1 53290U 22086BA  23038.17668141  .00000591  00000-0  55174-4 0  9998,2 53290  53.2177 201.2290 0001067  92.1605 267.9509 15.08846206 30965,6917.861,95.437,540.465,538.988,0.0
53290.0,STARLINK-4149,PAYLOAD,2023-02-07 16:57:30,15.08842888,0.0001137,53.2174,198.8505,92.644,267.4682,9.7669e-05,1.267e-05,0.0,0 STARLINK-4149,1 53290U 22086BA  23038.70660251  .00001267  00000-0  97669-4 0  9997,2 53290  53.2174 198.8505 0001137  92.6440 267.4682 15.08842888 31209,6917.872,95.437,540.523,538.95,0.0
53290.0,STARLINK-4149,PAYLOAD,2023-02-08 13:37:31,15.08839215,0.0001137,53.2165,194.9864,105.7598,254.352,-4.7983e-06,-3.64e-06,0.0,0 STARLINK-4149,1 53290U 22086BA  23039.56772622 -.00000364  00000-0 -47983-5 0  9992,2 53290  53.2165 194.9864 0001137 105.7598 254.3520 15.08839215 31176,6917.883,95.438,540.534,538.961,0.0
53290.0,STARLINK-4149,PAYLOAD,2023-02-08 16:48:17,15.08846779,0.0001343,53.218,194.39,106.4116,253.7024,-1.6169e-05,-5.45e-06,0.0,0 STARLINK-4149,1 53290U 22086BA  23039.70020155 -.00000545  00000-0 -16169-4 0  9997,2 53290  53.2180 194.3900 0001343 106.4116 253.7024 15.08846779 31198,6917.86,95.437,540.654,538.796,0.0
